[{"OBJECT_NAME":"STARLINK-4313","OBJECT_ID":"2022-077X","EPOCH":"2026-03-09T23:20:35.409984","MEAN_MOTION":15.05677178,"ECCENTRICITY":0.00015862,"INCLINATION":97.6022,"RA_OF_ASC_NODE":251.5078,"ARG_OF_PERICENTER":94.6932,"MEAN_ANOMALY":265.4476,"EPHEMERIS_TYPE":0,"CLASSIFICATION_TYPE":"U","NORAD_CAT_ID":53064,"ELEMENT_SET_NO":999,"REV_AT_EPOCH":20102,"BSTAR":0.00028366412,"MEAN_MOTION_DOT":4.038e-5,"MEAN_MOTION_DDOT":0},{"OBJECT_NAME":"PEGASUS DEB","OBJECT_ID":"1994-029BC","EPOCH":"2026-03-09T22:00:19.479168","MEAN_MOTION":15.02669201,"ECCENTRICITY":0.00619411,"INCLINATION":81.9229,"RA_OF_ASC_NODE":10.1044,"ARG_OF_PERICENTER":202.7728,"MEAN_ANOMALY":222.9696,"EPHEMERIS_TYPE":0,"CLASSIFICATION_TYPE":"U","NORAD_CAT_ID":24007,"ELEMENT_SET_NO":999,"REV_AT_EPOCH":60998,"BSTAR":0.00034526552,"MEAN_MOTION_DOT":4.826e-5,"MEAN_MOTION_DDOT":0}]
